CZ-2D R/B               
1 28738U 05024B   26089.28569752  .00055998  00000+0  63882-3 0  9993
2 28738  97.3577 105.2147 0002133 326.4143  33.6979 15.62053457142990
ALOS (DAICHI)           
1 28931U 06002A   26089.12977680  .00001724  00000+0  29664-3 0  9999
2 28931  98.1251  44.9879 0000903 109.6139 250.5164 14.69873007 76486
H-2A R/B                
1 28932U 06002B   26089.19388115  .00013779  00000+0  67864-3 0  9993
2 28932  98.2445 237.9929 0052453 170.8929 189.3266 15.16879240 97547
RESURS-DK 1             
1 29228U 06021A   26089.23132668  .00002911  00000+0  17119-3 0  9992
2 29228  69.9339 183.8864 0001346  49.3077 310.8206 15.12872134 90638
CZ-4B R/B               
1 29507U 06046C   26089.05723880  .00006922  00000+0  34785-3 0  9995
2 29507  97.5556 133.9100 0032825 194.2544 165.7767 15.17111209 63138
CZ-2C R/B               
1 31114U 07010B   26089.22691510  .00000163  00000+0  93855-4 0  9992
2 31114  98.4000 201.4786 0058128 233.7742 125.8054 14.20253691982639
COSMO-SKYMED 1          
1 31598U 07023A   26089.25700831  .00004607  00000+0  40881-3 0  9999
2 31598  97.8870 280.4571 0001075 102.8029 257.3312 14.96683541 17984
COSMOS 2428             
1 31792U 07029A   26089.20685441 -.00000016  00000+0  16956-4 0  9993
2 31792  70.9431 160.2824 0009702 255.8887 104.1157 14.12948547966995
SL-16 R/B               
1 31793U 07029B   26089.20932321 -.00000017  00000+0  16059-4 0  9991
2 31793  70.9747 129.2526 0002779 277.9697 148.7918 14.14843588968274
KORONAS-FOTON           
1 33504U 09003A   26088.21245498  .00019600  00000+0  43009-3 0  9990
2 33504  82.4275 255.5703 0011767  86.4859 273.7734 15.43844729948757
CZ-2C R/B               
1 37731U 11030B   26089.30185913  .00001839  00000+0  23747-3 0  9997
2 37731  97.8579  46.1581 0051039 283.8120 239.7712 14.81294624793141
H-2A R/B                
1 38341U 12025E   26089.13903881  .00004241  00000+0  38405-3 0  9990
2 38341  98.4764  57.8288 0042795 245.1796 114.4968 14.95313710751277
SHIJIAN-16 (SJ-16)      
1 39358U 13057A   26089.27642043  .00001573  00000+0  15599-3 0  9994
2 39358  74.9725 146.1172 0015280  59.0275 301.2412 14.92426134674578
SL-4 R/B                
1 39679U 14021B   26089.14114099  .00023819  00000+0  50981-3 0  9994
2 39679  51.6054 237.4532 0095266 177.5547 182.5922 15.39903339659427
ALOS-2                  
1 39766U 14029A   26089.27912646  .00003310  00000+0  45014-3 0  9992
2 39766  97.9186 187.5769 0001856 103.1095 257.0324 14.79454404639918
YAOGAN-29               
1 41038U 15069A   26089.30585706  .00000901  00000+0  11754-3 0  9996
2 41038  98.0118 117.7884 0000372 356.5363   3.5847 14.83018572558930
ASTRO-H (HITOMI)        
1 41337U 16012A   26089.05894296  .00004156  00000+0  24277-3 0  9996
2 41337  30.9989 225.0860 0009606 176.7990 183.2710 15.10133250555313
HXMT (HUIYAN)           
1 42758U 17034A   26089.18096946  .00007280  00000+0  36128-3 0  9998
2 42758  43.0133 262.7275 0031702   1.7163 358.3789 15.17721569485659
SAOCOM 1A               
1 43641U 18076A   26089.28370917  .00000916  00000+0  12164-3 0  9994
2 43641  97.8904 277.1657 0001458  87.2797 272.8583 14.82163414404412
H-2A R/B                
1 43682U 18084L   26089.17651748  .00024987  00000+0  57755-3 0  9999
2 43682  98.8704 310.9549 0023634 313.7074  46.2210 15.42219992408938
SAOCOM 1B               
1 46265U 20059A   26089.24744205 -.00000022  00000+0  38138-5 0  9994
2 46265  97.8897 276.2275 0001502  85.3364 274.8021 14.82155842301795
CSS (TIANHE)            
1 48274U 21035A   26087.97092897  .00015046  00000+0  17362-3 0  9997
2 48274  41.4668  90.7542 0003972  51.5615 308.5580 15.61596075280629
COSMOS 2550             
1 48865U 21056A   26087.49272868 -.00000186  00000+0  18968-6 0  9997
2 48865  67.1421 344.0047 0008440 269.5686  90.4502 15.33828274266348
CZ-2C R/B               
1 52794U 22058K   26087.66300685  .00046065  00000+0  63634-3 0  9996
2 52794  50.1874 220.5877 0041540 282.1630  77.4689 15.55620973213089
CZ-2C R/B               
1 54039U 22132E   26089.11766408  .00052740  00000+0  55882-3 0  9997
2 54039  97.2957  93.0838 0017266  24.2445 335.9623 15.63780019193561
GSLV R/B                
1 54149U 22138AN  26089.24455023  .00003310  00000+0  28443-3 0  9999
2 54149  87.3860 159.4811 0023988  78.9867 281.4061 14.96903751187004
XRISM                   
1 57800U 23137A   26089.17656080  .00007456  00000+0  42079-3 0  9990
2 57800  31.0017 151.1290 0007936 245.1735 114.8078 15.11738683140899
ACS3                    
1 59588U 24077B   26089.08421515  .00029110  00000+0  22827-1 0  9990
2 59588  97.1965  25.6117 0072875  30.3504 330.1850 13.90562322 97032
SZ-21 MODULE            
1 66515U 25246C   26089.24633182  .00048431  00000+0  38862-3 0  9995
2 66515  41.4738  76.6658 0002004 214.0911 145.9803 15.70160292 21303
